SL-14 R/B               
1 21423U 91042B   25362.31382674  .00000592  00000+0  71940-4 0  9990
2 21423  82.4936 287.1200 0018477 113.4255 246.8904 14.81753819842503
ERS-1                   
1 21574U 91050A   25362.58623140  .00000449  00000+0  15824-3 0  9990
2 21574  98.7901  14.0371 0032816  54.4705 305.9534 14.39377701805505
ARIANE 40 R/B           
1 21610U 91050F   25362.59810100  .00000429  00000+0  14120-3 0  9992
2 21610  98.2145  52.4547 0002002 298.3519  61.7469 14.42826582808741
INTERCOSMOS 25          
1 21819U 91086A   25362.23940806  .00002120  00000+0  42211-3 0  9992
2 21819  82.6083 353.2001 1486243 270.9683  72.2047 12.11790286488039
SL-8 R/B                
1 21876U 92008B   25362.62721508  .00000146  00000+0  13517-3 0  9992
2 21876  82.9276 320.6291 0034177 335.5005 198.2306 13.75962596699642
SL-8 R/B                
1 21938U 92020B   25362.62562258  .00000184  00000+0  17450-3 0  9992
2 21938  82.9288 206.5207 0029859 134.4631 286.6036 13.75531569691360
USA 81                  
1 21949U 92023A   25362.54286016  .00000270  00000+0  92834-4 0  9999
2 21949  85.0082 172.4618 0001098  96.1571 263.9747 14.32333085 84604
COSMOS 2219             
1 22219U 92076A   25362.64095488  .00000420  00000+0  24499-3 0  9998
2 22219  71.0588 166.5920 0019618 304.9484  54.9795 14.14071047708332
SL-16 R/B               
1 22220U 92076B   25362.40053171 -.00000080  00000+0 -16206-4 0  9999
2 22220  71.0011 338.5418 0014021 213.2004 259.0855 14.16845900711733
COSMOS 2221             
1 22236U 92080A   25362.47152363  .00002718  00000+0  24062-3 0  9997
2 22236  82.5044 347.2663 0016294  73.8893 286.4121 14.95826946770148
SL-16 R/B               
1 22285U 92093B   25362.57436283 -.00000134  00000+0 -44526-4 0  9992
2 22285  71.0210 153.5560 0002691  23.9033 336.2215 14.15435182703090
COSMOS 2228             
1 22286U 92094A   25362.53437700  .00003314  00000+0  28640-3 0  9994
2 22286  82.5188 305.4217 0017881 175.7892 184.3485 14.96806539765417
