CCSDS_OMM_VERS = 2.0
CREATION_DATE  = 
ORIGINATOR     = 

OBJECT_NAME    = SL-14 R/B
OBJECT_ID      = 1991-042B
CENTER_NAME    = EARTH
REF_FRAME      = TEME
TIME_SYSTEM    = UTC
MEAN_ELEMENT_THEORY = SGP/SGP4

EPOCH          = 2025-12-28T07:31:54.630336
MEAN_MOTION    = 14.81753819
ECCENTRICITY   = .0018477
INCLINATION    = 82.4936
RA_OF_ASC_NODE = 287.1200
ARG_OF_PERICENTER = 113.4255
MEAN_ANOMALY   = 246.8904

EPHEMERIS_TYPE = 0
CLASSIFICATION_TYPE = U
NORAD_CAT_ID   = 21423
ELEMENT_SET_NO = 999
REV_AT_EPOCH   = 84250
BSTAR          = .7194E-4
MEAN_MOTION_DOT = .592E-5
MEAN_MOTION_DDOT = 0

CCSDS_OMM_VERS = 2.0
CREATION_DATE  = 
ORIGINATOR     = 

OBJECT_NAME    = ERS-1
OBJECT_ID      = 1991-050A
CENTER_NAME    = EARTH
REF_FRAME      = TEME
TIME_SYSTEM    = UTC
MEAN_ELEMENT_THEORY = SGP/SGP4

EPOCH          = 2025-12-28T14:04:10.392960
MEAN_MOTION    = 14.39377701
ECCENTRICITY   = .00328162
INCLINATION    = 98.7901
RA_OF_ASC_NODE = 14.0371
ARG_OF_PERICENTER = 54.4705
MEAN_ANOMALY   = 305.9534

EPHEMERIS_TYPE = 0
CLASSIFICATION_TYPE = U
NORAD_CAT_ID   = 21574
ELEMENT_SET_NO = 999
REV_AT_EPOCH   = 80550
BSTAR          = .15823889E-3
MEAN_MOTION_DOT = .449E-5
MEAN_MOTION_DDOT = 0

CCSDS_OMM_VERS = 2.0
CREATION_DATE  = 
ORIGINATOR     = 

OBJECT_NAME    = ARIANE 40 R/B
OBJECT_ID      = 1991-050F
CENTER_NAME    = EARTH
REF_FRAME      = TEME
TIME_SYSTEM    = UTC
MEAN_ELEMENT_THEORY = SGP/SGP4

EPOCH          = 2025-12-28T14:21:15.926400
MEAN_MOTION    = 14.42826582
ECCENTRICITY   = .00020029
INCLINATION    = 98.2145
RA_OF_ASC_NODE = 52.4547
ARG_OF_PERICENTER = 298.3519
MEAN_ANOMALY   = 61.7469

EPHEMERIS_TYPE = 0
CLASSIFICATION_TYPE = U
NORAD_CAT_ID   = 21610
ELEMENT_SET_NO = 999
REV_AT_EPOCH   = 80874
BSTAR          = .14119724E-3
MEAN_MOTION_DOT = .429E-5
MEAN_MOTION_DDOT = 0

CCSDS_OMM_VERS = 2.0
CREATION_DATE  = 
ORIGINATOR     = 

OBJECT_NAME    = INTERCOSMOS 25
OBJECT_ID      = 1991-086A
CENTER_NAME    = EARTH
REF_FRAME      = TEME
TIME_SYSTEM    = UTC
MEAN_ELEMENT_THEORY = SGP/SGP4

EPOCH          = 2025-12-28T05:44:44.856384
MEAN_MOTION    = 12.11790286
ECCENTRICITY   = .1486243
INCLINATION    = 82.6083
RA_OF_ASC_NODE = 353.2001
ARG_OF_PERICENTER = 270.9683
MEAN_ANOMALY   = 72.2047

EPHEMERIS_TYPE = 0
CLASSIFICATION_TYPE = U
NORAD_CAT_ID   = 21819
ELEMENT_SET_NO = 999
REV_AT_EPOCH   = 48803
BSTAR          = .42211E-3
MEAN_MOTION_DOT = .212E-4
MEAN_MOTION_DDOT = 0

CCSDS_OMM_VERS = 2.0
CREATION_DATE  = 
ORIGINATOR     = 

OBJECT_NAME    = SL-8 R/B
OBJECT_ID      = 1992-008B
CENTER_NAME    = EARTH
REF_FRAME      = TEME
TIME_SYSTEM    = UTC
MEAN_ELEMENT_THEORY = SGP/SGP4

EPOCH          = 2025-12-28T15:03:11.382912
MEAN_MOTION    = 13.75962596
ECCENTRICITY   = .0034177
INCLINATION    = 82.9276
RA_OF_ASC_NODE = 320.6291
ARG_OF_PERICENTER = 335.5005
MEAN_ANOMALY   = 198.2306

EPHEMERIS_TYPE = 0
CLASSIFICATION_TYPE = U
NORAD_CAT_ID   = 21876
ELEMENT_SET_NO = 999
REV_AT_EPOCH   = 69964
BSTAR          = .13516687E-3
MEAN_MOTION_DOT = .146E-5
MEAN_MOTION_DDOT = 0

CCSDS_OMM_VERS = 2.0
CREATION_DATE  = 
ORIGINATOR     = 

OBJECT_NAME    = SL-8 R/B
OBJECT_ID      = 1992-020B
CENTER_NAME    = EARTH
REF_FRAME      = TEME
TIME_SYSTEM    = UTC
MEAN_ELEMENT_THEORY = SGP/SGP4

EPOCH          = 2025-12-28T15:00:53.790912
MEAN_MOTION    = 13.75531569
ECCENTRICITY   = .00298596
INCLINATION    = 82.9288
RA_OF_ASC_NODE = 206.5207
ARG_OF_PERICENTER = 134.4631
MEAN_ANOMALY   = 286.6036

EPHEMERIS_TYPE = 0
CLASSIFICATION_TYPE = U
NORAD_CAT_ID   = 21938
ELEMENT_SET_NO = 999
REV_AT_EPOCH   = 69136
BSTAR          = .1745005E-3
MEAN_MOTION_DOT = .184E-5
MEAN_MOTION_DDOT = 0

CCSDS_OMM_VERS = 2.0
CREATION_DATE  = 
ORIGINATOR     = 

OBJECT_NAME    = USA 81
OBJECT_ID      = 1992-023A
CENTER_NAME    = EARTH
REF_FRAME      = TEME
TIME_SYSTEM    = UTC
MEAN_ELEMENT_THEORY = SGP/SGP4

EPOCH          = 2025-12-28T13:01:43.117824
MEAN_MOTION    = 14.32333085
ECCENTRICITY   = .00010985
INCLINATION    = 85.0082
RA_OF_ASC_NODE = 172.4618
ARG_OF_PERICENTER = 96.1571
MEAN_ANOMALY   = 263.9747

EPHEMERIS_TYPE = 0
CLASSIFICATION_TYPE = U
NORAD_CAT_ID   = 21949
ELEMENT_SET_NO = 999
REV_AT_EPOCH   = 8460
BSTAR          = .92833716E-4
MEAN_MOTION_DOT = .27E-5
MEAN_MOTION_DDOT = 0

CCSDS_OMM_VERS = 2.0
CREATION_DATE  = 
ORIGINATOR     = 

OBJECT_NAME    = COSMOS 2219
OBJECT_ID      = 1992-076A
CENTER_NAME    = EARTH
REF_FRAME      = TEME
TIME_SYSTEM    = UTC
MEAN_ELEMENT_THEORY = SGP/SGP4

EPOCH          = 2025-12-28T15:22:58.501632
MEAN_MOTION    = 14.14071047
ECCENTRICITY   = .00196187
INCLINATION    = 71.0588
RA_OF_ASC_NODE = 166.5920
ARG_OF_PERICENTER = 304.9484
MEAN_ANOMALY   = 54.9795

EPHEMERIS_TYPE = 0
CLASSIFICATION_TYPE = U
NORAD_CAT_ID   = 22219
ELEMENT_SET_NO = 999
REV_AT_EPOCH   = 70833
BSTAR          = .24499212E-3
MEAN_MOTION_DOT = .42E-5
MEAN_MOTION_DDOT = 0

CCSDS_OMM_VERS = 2.0
CREATION_DATE  = 
ORIGINATOR     = 

OBJECT_NAME    = SL-16 R/B
OBJECT_ID      = 1992-076B
CENTER_NAME    = EARTH
REF_FRAME      = TEME
TIME_SYSTEM    = UTC
MEAN_ELEMENT_THEORY = SGP/SGP4

EPOCH          = 2025-12-28T09:36:45.939744
MEAN_MOTION    = 14.16845900
ECCENTRICITY   = .00140212
INCLINATION    = 71.0011
RA_OF_ASC_NODE = 338.5418
ARG_OF_PERICENTER = 213.2004
MEAN_ANOMALY   = 259.0855

EPHEMERIS_TYPE = 0
CLASSIFICATION_TYPE = U
NORAD_CAT_ID   = 22220
ELEMENT_SET_NO = 999
REV_AT_EPOCH   = 71173
BSTAR          = -.16206462E-4
MEAN_MOTION_DOT = -.8E-6
MEAN_MOTION_DDOT = 0

CCSDS_OMM_VERS = 2.0
CREATION_DATE  = 
ORIGINATOR     = 

OBJECT_NAME    = COSMOS 2221
OBJECT_ID      = 1992-080A
CENTER_NAME    = EARTH
REF_FRAME      = TEME
TIME_SYSTEM    = UTC
MEAN_ELEMENT_THEORY = SGP/SGP4

EPOCH          = 2025-12-28T11:18:59.641632
MEAN_MOTION    = 14.95826946
ECCENTRICITY   = .00162943
INCLINATION    = 82.5044
RA_OF_ASC_NODE = 347.2663
ARG_OF_PERICENTER = 73.8893
MEAN_ANOMALY   = 286.4121

EPHEMERIS_TYPE = 0
CLASSIFICATION_TYPE = U
NORAD_CAT_ID   = 22236
ELEMENT_SET_NO = 999
REV_AT_EPOCH   = 77014
BSTAR          = .24061838E-3
MEAN_MOTION_DOT = .2718E-4
MEAN_MOTION_DDOT = 0

CCSDS_OMM_VERS = 2.0
CREATION_DATE  = 
ORIGINATOR     = 

OBJECT_NAME    = SL-16 R/B
OBJECT_ID      = 1992-093B
CENTER_NAME    = EARTH
REF_FRAME      = TEME
TIME_SYSTEM    = UTC
MEAN_ELEMENT_THEORY = SGP/SGP4

EPOCH          = 2025-12-28T13:47:04.948512
MEAN_MOTION    = 14.15435182
ECCENTRICITY   = .00026917
INCLINATION    = 71.0210
RA_OF_ASC_NODE = 153.5560
ARG_OF_PERICENTER = 23.9033
MEAN_ANOMALY   = 336.2215

EPHEMERIS_TYPE = 0
CLASSIFICATION_TYPE = U
NORAD_CAT_ID   = 22285
ELEMENT_SET_NO = 999
REV_AT_EPOCH   = 70309
BSTAR          = -.44525525E-4
MEAN_MOTION_DOT = -.134E-5
MEAN_MOTION_DDOT = 0

CCSDS_OMM_VERS = 2.0
CREATION_DATE  = 
ORIGINATOR     = 

OBJECT_NAME    = COSMOS 2228
OBJECT_ID      = 1992-094A
CENTER_NAME    = EARTH
REF_FRAME      = TEME
TIME_SYSTEM    = UTC
MEAN_ELEMENT_THEORY = SGP/SGP4

EPOCH          = 2025-12-28T12:49:30.172800
MEAN_MOTION    = 14.96806539
ECCENTRICITY   = .00178813
INCLINATION    = 82.5188
RA_OF_ASC_NODE = 305.4217
ARG_OF_PERICENTER = 175.7892
MEAN_ANOMALY   = 184.3485

EPHEMERIS_TYPE = 0
CLASSIFICATION_TYPE = U
NORAD_CAT_ID   = 22286
ELEMENT_SET_NO = 999
REV_AT_EPOCH   = 76541
BSTAR          = .2863969E-3
MEAN_MOTION_DOT = .3314E-4
MEAN_MOTION_DDOT = 0

